#dP2020  9 23  0  0  0.00000000      97 __u+U IGS14 FIT  IAC
## 2124 259200.00000000   900.00000000 59115 0.0000000000000
+  120   C01C02C03C04C05C06C07C08C09C10C11C12C13C14C16C19C20
+        C21C22C23C24C25C26C27C28C29C30C32C33C34C35C36C37C38
+        C39C40C43C44C45C46C60E01E02E03E04E05E07E08E09E11E12
+        E13E14E15E18E19E21E24E25E26E27E30E31E33E36G01G02G03
+        G04G05G06G07G08G09G10G11G12G13G15G16G17G18G19G20G21
+        G22G24G25G26G27G28G29G30G31J01J02J03J07R01R02R03R04
+        R05R07R08R11R12R13R14R15R16R17R18R19R20R21R22R23R24
+        R26  0  0  0  0  0  0  0  0  0  0  0  0  0  0  0  0
++        13 12 13 13 12  9  8  8  9  8  7  7  7  7 11  7  7
++         7  7  7  8  7  8  7  7  7  7  7  8  8  8  7  7 10
++        10  9  9  9  9  9 14  4  4  4  4  4  4  4  4  4  4
++         4  4  4  4  4  4  4  4  4  4  4  4  4  4  3  3  3
++         3  3  3  3  3  3  3  3  3  4  3  3  3  3  3  3  3
++         3  3  3  3  3  3  3  3  3  9  9  9 13  6  5  5  5
++         5  5  5  5  5  6  5  5  6  5  5  6  6  5  6  5  5
++         8  0  0  0  0  0  0  0  0  0  0  0  0  0  0  0  0
%c M  cc GPS ccc cccc cccc cccc cccc ccccc ccccc ccccc ccccc
%c cc cc ccc ccc cccc cccc cccc cccc ccccc ccccc ccccc ccccc
%f  1.2500000  1.025000000  0.00000000000  0.000000000000000
%f  0.0000000  0.000000000  0.00000000000  0.000000000000000
%i    0    0    0    0      0      0      0      0         0
%i    0    0    0    0      0      0      0      0         0
/* INFORMATION & ANALYSIS CENTER (IAC)            FINAL DATA
/* S/V CLOCKS ARE ALIGNED TO GNSS TIME                      
/* G:C1WC2W R:C1PC2P E:C1XC5X C:C2IC6I J:C1CC2S             
/* PCV:IGS14_2118 OL/AL:FES2004  NONE     YN ORB:CoN CLK:CoN
*  2020 09 23 17 45  0.00000000
PC01 -34317.928705  24539.593968    509.380541   -111.444843
PC02   4354.704953  41902.328252   -977.487840    816.753816
PC03 -14713.749144  39483.618014   -917.213678    796.808812
PC04 -39597.091028  14514.714384    146.685515    232.412912
PC05  21918.646562  35993.479602  -1204.566858   -300.846655
PC06 -12417.977946  37126.803084 -14631.118357     10.993040
PC07 -12823.976161  23175.144386  33045.592253    -38.115268
PC08 -25988.833807  27214.605279 -19313.803127   -548.764418
PC09  -3960.788393  41754.980983   -161.013235    828.906515
PC10   2652.016474  29095.049068  30749.191613   -179.914002
PC11 -14365.608136  20089.617514  13108.791837   -639.745900
PC12 -15921.381487   1382.885477  22913.635973    523.391865
PC13 -12085.335773  28354.977554 -28831.253685    661.684795
PC14 -12949.024005   9587.753950 -22761.475026    206.372439
PC16  -9798.729725  39096.367087 -11924.900689   -590.584761
PC19   4396.410915 -16784.384794  21870.124257    556.819252
PC20  18780.777312  -1791.328105  20580.256646   -847.243830
PC21 -22514.383283 -14928.884517  -6945.500771   -683.045623
PC22 -12868.396653 -22426.284161  10456.721663   -767.290511
PC23   5396.703770  15311.744268  22712.165280   -871.163270
PC24 -26802.939021   7797.321064    515.730428   -725.200390
PC25 -14390.851332  16938.906992  16887.271608   -766.934634
PC26 -23132.146262  -4169.691597 -15067.547268    841.154632
PC27  13465.415739   9658.720522 -22468.632800    403.942092
PC28   2194.273921  24903.025285 -12413.769503   -166.688687
PC29   9323.173718 -25851.254151  -4844.070548    287.880154
PC30  16425.474025 -11383.125672 -19486.342262    379.902241
PC32  22642.816520  14772.828012   6941.059038   -905.088528
PC33  -4376.557756  16792.136171 -21859.167975   -800.708946
PC34 -16418.394021  11894.264705  19161.522666   -847.987769
PC35  -2920.073378 -24939.405074  12200.138765   -640.337878
PC36  15036.890644 -16523.831024 -16689.262682   -908.365411
PC37  22535.711800   5231.105646  15622.774120   -917.155467
PC38 -22047.417686  29104.368218 -21231.156439    102.152300
PC39  -6522.535944  40082.422432 -11152.893561     22.826415
PC40   -163.637760  25145.003892  33915.593336     84.044489
PC43  -9692.802799  25645.352464   5159.953745   -385.723944
PC44 -13794.207609  -9489.219908  22323.167366 999999.999999
PC45  -5459.620542 -15150.520522 -22775.853209 999999.999999
PC46  26614.524278  -8254.958607  -1127.145178    625.104094
PC60   7340.489321  41526.096561    679.506288 999999.999999
PE01  29235.533855   4533.074315   -961.177053   -946.912748
PE02 -29250.018102  -4445.833489   1091.973687    163.784510
PE03 -18935.294799  -7400.938331 -21513.048699   -346.091162
PE04  12291.611372 -13927.013029  23046.480136   -613.064241
PE05 -14563.962198 -24702.571984  -7330.896278   -343.659143
PE07   1731.183656  27430.798140 -11002.843703   -439.812987
PE08 -11920.417795  14224.618991 -23064.936397   6116.484028
PE09  -2034.170380 -27415.245221  10951.651343   5921.371514
PE11   9255.336375 -24869.081261  13111.376429   5721.800033
PE12  21268.594847 -19692.715267  -6019.737515   5590.992112
PE13  -9411.460809  24919.168162 -12914.744426    403.859406
PE14   6034.080755  28306.737310  -5707.625876  -1166.131162
PE15 -21124.237121  19894.582040   5867.996555    851.357384
PE18   4695.002996 -26421.784670  -6689.317376  -1274.160446
PE19  18911.986750   9832.820102  20538.715513     85.798740
PE21  19872.152212  14609.075245  16376.523551   -623.011027
PE24   1887.742896 -16444.444223 -24541.374107   5228.650376
PE25 -19749.914823 -14647.132701 -16464.284751   -517.077869
PE26   8317.722193  15020.823705 -24113.426546   2692.665107
PE27  -1321.932523  16481.016126  24564.506506    127.940013
PE30 -22096.125433   8260.631866  17886.763833   3561.125681
PE31  21622.237185  -8647.906775 -18257.633994   -474.329540
PE33  20413.872667  -3175.260378 -21194.314868   -462.683738
PE36  -7829.910239 -15296.056403  24101.301852    503.610081
PG01 -10086.594570  19547.471458 -14881.351779     35.559607
PG02  21589.469630 -14761.496110  -3884.897101   -520.410755
PG03    505.924585  16180.664668 -21155.420625   -307.263482
PG04  -1006.980203  26169.163886  -4294.008250   -137.992397
PG05  19692.353063  -5119.369168  17019.251585    -21.774951
PG06  20890.572910  -1831.410106 -16268.726077   -328.105214
PG07   7144.874924  13917.601680  21756.604204   -378.789964
PG08  -7096.554510  21218.002526  14118.548671    -49.002699
PG09   8135.599586  24240.088001   7100.075473   -290.320566
PG10 -23915.199367 -11756.793777   1736.474068   -462.174989
PG11 -11035.088972  24357.011856  -1320.587139   -156.183179
PG12   2270.415496 -15423.398252 -21756.202253     63.331231
PG13  12995.147613 -13701.984156  18504.678660     48.054424
PG15   4872.630884 -22357.829603  12826.925271   -201.674832
PG16 -18680.588608   3918.579849  18440.380719   -213.037901
PG17  13603.473457  10976.343870 -19585.080478    330.099148
PG18  -7438.813089 -13212.913341  21792.600252    295.455486
PG19  14797.343176   3084.332109 -22137.274064   -100.985251
PG20 -17794.462266 -14995.650324  12949.439782    526.641840
PG21 -22184.042774  13384.992478   5803.473801     50.332451
PG22  -7909.684873  13834.376148 -21039.025436   -751.287155
PG24  11524.866717 -20809.140359 -11619.595044    -18.918775
PG25 -10605.085517 -17673.181127 -17135.362930     53.356724
PG26 -25129.509037  -3601.419226   8178.036586    283.760082
PG27 -12689.233829  10767.653538  20468.443158   -402.469597
PG28  22927.667199  13231.876820    608.719865    675.538937
PG29  -3991.342531 -25837.451516   4504.369244   -200.975278
PG30  16283.819370   6627.695986  20016.914556   -307.227979
PG31 -22312.528554   3065.280874 -14484.532634    -70.557896
PJ01 -21029.316570  20296.832665 -25869.966350   -344.897763
PJ02 -30567.370283  22758.255018  22924.222463     -4.104377
PJ03 -29094.905406  26453.607295  20283.617370     -1.352361
PJ07 -25400.507088  33662.468228    -16.954554      0.077268
PR01  -3648.423196  12753.276843 -21794.113872     68.004780
PR02  11492.029842  21760.961211  -6563.227561    446.896781
PR03  17229.967780  15354.797566  10843.181501     22.543011
PR04  12977.402705    470.575586  21974.723058     55.564245
PR05   1511.466336 -14750.546462  20767.331071     58.083347
PR07 -17239.946208 -15061.240753 -11268.294957    -40.321029
PR08 -13070.889485   -465.365010 -21855.203864    -54.748449
PR11 -24270.748693   5252.818219   5737.819482    -38.696812
PR12 -12868.404145  10516.981243  19391.966917    166.182044
PR13   6385.292876  10106.366253  22525.788840    -44.256761
PR14  22057.334319   3792.623331  12273.658960     55.847487
PR15  24613.578610  -4633.479766  -4813.484604    106.994343
PR16  11791.569846 -11030.337593 -19717.453173     -6.607669
PR17   8661.928016   6346.056980 -23134.017453    360.547978
PR18  14145.612739 -10873.087439 -18237.836191     50.383417
PR19  12835.055474 -21634.437442  -4185.005030   -112.436487
PR20   2849.678143 -20533.656291  14890.205451   -422.484279
PR21  -9131.729128  -5208.312014  23237.784371   -154.218789
PR22 -14251.855587  11815.226155  17488.730271    -74.280811
PR23  -9478.254514  23461.650777  -3278.605106    333.896841
PR24  -1925.038889  20330.765165 -15287.179391     14.351991
PR26   5614.115921 -22653.438072  10259.790739   -360.432363
EOF
